{"fetched_at":"2026-07-10T07:59:19.508Z","source":"https://celestrak.org/NORAD/elements/gp.php?NAME=SENTINEL&FORMAT=JSON","constellation":"sentinel-2","records":[{"OBJECT_NAME":"SENTINEL-2A","OBJECT_ID":"2015-028A","EPOCH":"2026-07-09T19:15:01.067616","CLASSIFICATION_TYPE":"U","MEAN_MOTION":14.308135,"ECCENTRICITY":0.0001245,"INCLINATION":98.5675,"RA_OF_ASC_NODE":265.3321,"ARG_OF_PERICENTER":93.98,"MEAN_ANOMALY":266.1525,"EPHEMERIS_TYPE":0,"NORAD_CAT_ID":40697,"ELEMENT_SET_NO":999,"REV_AT_EPOCH":57696,"BSTAR":-0.0000036981,"MEAN_MOTION_DOT":-5.3e-7,"MEAN_MOTION_DDOT":0},{"OBJECT_NAME":"SENTINEL-2B","OBJECT_ID":"2017-013A","EPOCH":"2026-07-09T20:45:22.139712","CLASSIFICATION_TYPE":"U","MEAN_MOTION":14.30814113,"ECCENTRICITY":0.0001212,"INCLINATION":98.5682,"RA_OF_ASC_NODE":265.3188,"ARG_OF_PERICENTER":89.6854,"MEAN_ANOMALY":270.4468,"EPHEMERIS_TYPE":0,"NORAD_CAT_ID":42063,"ELEMENT_SET_NO":999,"REV_AT_EPOCH":48788,"BSTAR":0.0000067949,"MEAN_MOTION_DOT":-2.6e-7,"MEAN_MOTION_DDOT":0},{"OBJECT_NAME":"SENTINEL-2C","OBJECT_ID":"2024-157A","EPOCH":"2026-07-09T04:48:44.891712","CLASSIFICATION_TYPE":"U","MEAN_MOTION":14.30814617,"ECCENTRICITY":0.00009391,"INCLINATION":98.5685,"RA_OF_ASC_NODE":264.6704,"ARG_OF_PERICENTER":97.5512,"MEAN_ANOMALY":262.5777,"EPHEMERIS_TYPE":0,"NORAD_CAT_ID":60989,"ELEMENT_SET_NO":999,"REV_AT_EPOCH":9613,"BSTAR":0.00003661567,"MEAN_MOTION_DOT":5.2e-7,"MEAN_MOTION_DDOT":0}]}
